ONEWEB-0520             
1 54138U 22138AB  25362.46624819 -.00000001  00000+0 -35226-4 0  9999
2 54138  87.9219 338.9269 0001877  75.0985 285.0355 13.19725944154302
ONEWEB-0521             
1 54139U 22138AC  25362.49942065 -.00000130  00000+0 -35722-3 0  9992
2 54139  87.9218 338.9049 0001973  90.2417 269.8942 13.19726471154256
ONEWEB-0522             
1 54140U 22138AD  25362.63052350  .00000021  00000+0  19187-4 0  9994
2 54140  87.9220 338.8800 0001903  79.5244 280.6103 13.19725104154315
ONEWEB-0523             
1 54141U 22138AE  25362.35043297  .00000114  00000+0  24932-3 0  9990
2 54141  87.9216 308.5123 0001650 106.1244 254.0072 13.20771540156756
ONEWEB-0524             
1 54142U 22138AF  25362.41514148  .00000052  00000+0  95892-4 0  9991
2 54142  87.9213 308.5013 0000846  79.7978 280.3250 13.20772690156765
ONEWEB-0525             
1 54143U 22138AG  25362.49784010  .00000111  00000+0  24617-3 0  9999
2 54143  87.9211 338.9251 0001880  75.1747 284.9593 13.19726179154316
ONEWEB-0526             
1 54144U 22138AH  25362.45519280 -.00000001  00000+0 -34023-4 0  9994
2 54144  87.9217 338.9235 0001795  81.3829 278.7507 13.19725445154287
ONEWEB-0529             
1 54145U 22138AJ  25362.38253264  .00000080  00000+0  16667-3 0  9992
2 54145  87.9206 338.9637 0001816  77.2018 282.9318 13.19725948154296
